{
  "norad_id": 53498,
  "name": "STARLINK-4439",
  "history": [
    {
      "epoch": "2026-03-28T20:57:19.689120Z",
      "apogee_km": 549.9459265947808,
      "perigee_km": 549.0965956919645,
      "latitude_deg": 1.0295652298687338e-05,
      "longitude_deg": 69.46161417768103,
      "height_km": 552.6878971507002,
      "semi_major_axis_km": 6927.658261143372,
      "eccentricity": 6.13e-05,
      "inclination_deg": 97.6043,
      "raan_deg": 210.081,
      "arg_perigee_deg": 103.955,
      "mean_anomaly_deg": 256.1745,
      "mean_motion_rev_day": 15.05646705
    }
  ]
}