{"fetched_at":"2026-03-30T13:17:50Z","count":15418,"tles":[{"name":"STARLINK-4439","line1":"1 53498U 22099AK  26087.87314455  .00000577  00000+0  44227-4 0  9992","line2":"2 53498  97.6043 210.0810 0000613 103.9550 256.1745 15.05646705198934","category":"Starlink"}]}